start=new Date('2021-11-27T00:00:00.000Z').valueOf();
sats=[{"MEAN_ELEMENT_THEORY":"SGP4","RCS_SIZE":"LARGE","LAUNCH_DATE":"2021-03-04","FILE":"3224952","RA_OF_ASC_NODE":"31.8402","SITE":"AFETR","TLE_LINE1":"1 47734U 21017N   21330.87839009 -.00000121  00000-0  10774-4 0  9997","MEAN_MOTION":"15.06399480","DECAY_DATE":null,"OBJECT_ID":"2021-017N","REV_AT_EPOCH":"4204","TLE_LINE2":"2 47734  53.0560  31.8402 0001347  61.5986 298.5138 15.06399480 42045","OBJECT_NAME":"STARLINK-2144","CLASSIFICATION_TYPE":"U","EPOCH":"2021-11-26T21:04:52.903776","COUNTRY_CODE":"US","BSTAR":"0.00001077400000","MEAN_MOTION_DDOT":"0.0000000000000","GP_ID":"190559192","MEAN_ANOMALY":"298.5138","OBJECT_TYPE":"PAYLOAD","MEAN_MOTION_DOT":"-0.00000121","CENTER_NAME":"EARTH","ECCENTRICITY":"0.00013470","EPHEMERIS_TYPE":"0","SEMIMAJOR_AXIS":"6925.350","INCLINATION":"53.0560","NORAD_CAT_ID":"47734","PERIAPSIS":"546.282","PERIOD":"95.592","ARG_OF_PERICENTER":"61.5986","REF_FRAME":"TEME","ELEMENT_SET_NO":"999","APOAPSIS":"548.148","TIME_SYSTEM":"UTC"},{"MEAN_ANOMALY":"291.0159","GP_ID":"190559442","MEAN_MOTION_DDOT":"0.0000000000000","COUNTRY_CODE":"US","BSTAR":"0.00014083000000","CLASSIFICATION_TYPE":"U","EPOCH":"2021-11-26T22:41:03.204672","TLE_LINE2":"2 47735  53.0539 316.5220 0001619  69.1003 291.0159 15.06400596 43086","OBJECT_NAME":"STARLINK-2146","DECAY_DATE":null,"REV_AT_EPOCH":"4308","OBJECT_ID":"2021-017P","MEAN_MOTION":"15.06400596","TLE_LINE1":"1 47735U 21017P   21330.94517598  .00001817  00000-0  14083-3 0  9990","SITE":"AFETR","LAUNCH_DATE":"2021-03-04","FILE":"3224952","RA_OF_ASC_NODE":"316.5220","MEAN_ELEMENT_THEORY":"SGP4","RCS_SIZE":"LARGE","ELEMENT_SET_NO":"999","TIME_SYSTEM":"UTC","APOAPSIS":"548.333","ARG_OF_PERICENTER":"69.1003","REF_FRAME":"TEME","PERIOD":"95.592","PERIAPSIS":"546.091","INCLINATION":"53.0539","NORAD_CAT_ID":"47735","SEMIMAJOR_AXIS":"6925.347","ECCENTRICITY":"0.00016190","EPHEMERIS_TYPE":"0","CENTER_NAME":"EARTH","OBJECT_TYPE":"PAYLOAD","MEAN_MOTION_DOT":"0.00001817"},{"ELEMENT_SET_NO":"999","TIME_SYSTEM":"UTC","APOAPSIS":"548.117","ARG_OF_PERICENTER":"73.4781","REF_FRAME":"TEME","INCLINATION":"53.0567","NORAD_CAT_ID":"47736","PERIAPSIS":"546.301","PERIOD":"95.592","ECCENTRICITY":"0.00013110","EPHEMERIS_TYPE":"0","SEMIMAJOR_AXIS":"6925.344","OBJECT_TYPE":"PAYLOAD","MEAN_MOTION_DOT":"0.00001350","CENTER_NAME":"EARTH","MEAN_ANOMALY":"286.6351","GP_ID":"190559689","CLASSIFICATION_TYPE":"U","EPOCH":"2021-11-26T20:18:26.313696","MEAN_MOTION_DDOT":"0.0000000000000","COUNTRY_CODE":"US","BSTAR":"0.00010948000000","DECAY_DATE":null,"REV_AT_EPOCH":"4221","OBJECT_ID":"2021-017Q","MEAN_MOTION":"15.06401591","TLE_LINE2":"2 47736  53.0567  21.9872 0001311  73.4781 286.6351 15.06401591 42212","OBJECT_NAME":"STARLINK-2147","FILE":"3224952","LAUNCH_DATE":"2021-03-04","RA_OF_ASC_NODE":"21.9872","MEAN_ELEMENT_THEORY":"SGP4","RCS_SIZE":"LARGE","SITE":"AFETR","TLE_LINE1":"1 47736U 21017Q   21330.84613789  .00001350  00000-0  10948-3 0  9997"},{"GP_ID":"190559945","MEAN_ANOMALY":"307.8275","MEAN_MOTION_DDOT":"0.0000000000000","COUNTRY_CODE":"US","BSTAR":"0.00003634200000","CLASSIFICATION_TYPE":"U","EPOCH":"2021-11-26T15:53:42.510048","TLE_LINE2":"2 47737  53.0557 317.7991 0001868  52.2883 307.8275 15.06403205 43097","OBJECT_NAME":"STARLINK-2148","DECAY_DATE":null,"OBJECT_ID":"2021-017R","REV_AT_EPOCH":"4309","MEAN_MOTION":"15.06403205","TLE_LINE1":"1 47737U 21017R   21330.66229757  .00000260  00000-0  36342-4 0  9992","SITE":"AFETR","FILE":"3224952","LAUNCH_DATE":"2021-03-04","RA_OF_ASC_NODE":"317.7991","MEAN_ELEMENT_THEORY":"SGP4","RCS_SIZE":"LARGE","ELEMENT_SET_NO":"999","TIME_SYSTEM":"UTC","APOAPSIS":"548.497","ARG_OF_PERICENTER":"52.2883","REF_FRAME":"TEME","PERIAPSIS":"545.910","PERIOD":"95.592","INCLINATION":"53.0557","NORAD_CAT_ID":"47737","SEMIMAJOR_AXIS":"6925.339","ECCENTRICITY":"0.00018680","EPHEMERIS_TYPE":"0","CENTER_NAME":"EARTH","OBJECT_TYPE":"PAYLOAD","MEAN_MOTION_DOT":"0.00000260"},{"PERIAPSIS":"543.097","PERIOD":"95.592","NORAD_CAT_ID":"47738","INCLINATION":"53.0561","REF_FRAME":"TEME","ARG_OF_PERICENTER":"20.7180","TIME_SYSTEM":"UTC","APOAPSIS":"551.336","ELEMENT_SET_NO":"999","CENTER_NAME":"EARTH","MEAN_MOTION_DOT":"0.00001545","OBJECT_TYPE":"PAYLOAD","SEMIMAJOR_AXIS":"6925.352","EPHEMERIS_TYPE":"0","ECCENTRICITY":"0.00059490","BSTAR":"0.00012267000000","COUNTRY_CODE":"US","MEAN_MOTION_DDOT":"0.0000000000000","CLASSIFICATION_TYPE":"U","EPOCH":"2021-11-26T20:39:40.280832","MEAN_ANOMALY":"339.4049","GP_ID":"190558693","SITE":"AFETR","TLE_LINE1":"1 47738U 21017S   21330.86088288  .00001545  00000-0  12267-3 0  9993","RCS_SIZE":"LARGE","MEAN_ELEMENT_THEORY":"SGP4","RA_OF_ASC_NODE":"21.9275","FILE":"3224952","LAUNCH_DATE":"2021-03-04","OBJECT_NAME":"STARLINK-2149","TLE_LINE2":"2 47738  53.0561  21.9275 0005949  20.7180 339.4049 15.06399007 42213","MEAN_MOTION":"15.06399007","OBJECT_ID":"2021-017S","REV_AT_EPOCH":"4221","DECAY_DATE":null},{"EPOCH":"2021-11-26T21:48:01.094400","CLASSIFICATION_TYPE":"U","COUNTRY_CODE":"US","BSTAR":"0.00010390000000","MEAN_MOTION_DDOT":"0.0000000000000","MEAN_ANOMALY":"279.3766","GP_ID":"190558943","MEAN_ELEMENT_THEORY":"SGP4","RCS_SIZE":"LARGE","FILE":"3224952","LAUNCH_DATE":"2021-03-04","RA_OF_ASC_NODE":"46.7101","TLE_LINE1":"1 47739U 21017T   21330.90834600  .00001267  00000-0  10390-3 0  9992","SITE":"AFETR","MEAN_MOTION":"15.06400172","DECAY_DATE":null,"REV_AT_EPOCH":"4187","OBJECT_ID":"2021-017T","TLE_LINE2":"2 47739  53.0553  46.7101 0001125  80.7350 279.3766 15.06400172 41870","OBJECT_NAME":"STARLINK-2150","INCLINATION":"53.0553","NORAD_CAT_ID":"47739","PERIOD":"95.592","PERIAPSIS":"546.434","ARG_OF_PERICENTER":"80.7350","REF_FRAME":"TEME","ELEMENT_SET_NO":"999","APOAPSIS":"547.992","TIME_SYSTEM":"UTC","OBJECT_TYPE":"PAYLOAD","MEAN_MOTION_DOT":"0.00001267","CENTER_NAME":"EARTH","ECCENTRICITY":"0.00011250","EPHEMERIS_TYPE":"0","SEMIMAJOR_AXIS":"6925.348"},{"PERIOD":"95.592","PERIAPSIS":"546.305","INCLINATION":"53.0554","NORAD_CAT_ID":"47740","ARG_OF_PERICENTER":"70.9923","REF_FRAME":"TEME","ELEMENT_SET_NO":"999","TIME_SYSTEM":"UTC","APOAPSIS":"548.096","CENTER_NAME":"EARTH","OBJECT_TYPE":"PAYLOAD","MEAN_MOTION_DOT":"0.00002467","SEMIMAJOR_AXIS":"6925.335","ECCENTRICITY":"0.00012930","EPHEMERIS_TYPE":"0","COUNTRY_CODE":"US","BSTAR":"0.00018440000000","MEAN_MOTION_DDOT":"0.0000000000000","CLASSIFICATION_TYPE":"U","EPOCH":"2021-11-26T21:20:48.330528","GP_ID":"190560189","MEAN_ANOMALY":"289.1206","SITE":"AFETR","TLE_LINE1":"1 47740U 21017U   21330.88944827  .00002467  00000-0  18440-3 0  9991","MEAN_ELEMENT_THEORY":"SGP4","RCS_SIZE":"LARGE","LAUNCH_DATE":"2021-03-04","FILE":"3224952","RA_OF_ASC_NODE":"31.8030","TLE_LINE2":"2 47740  53.0554  31.8030 0001293  70.9923 289.1206 15.06404297 42075","OBJECT_NAME":"STARLINK-2152","MEAN_MOTION":"15.06404297","DECAY_DATE":null,"REV_AT_EPOCH":"4207","OBJECT_ID":"2021-017U"},{"GP_ID":"190560445","MEAN_ANOMALY":"301.6087","COUNTRY_CODE":"US","BSTAR":"0.00009183800000","MEAN_MOTION_DDOT":"0.0000000000000","CLASSIFICATION_TYPE":"U","EPOCH":"2021-11-26T21:42:02.664000","TLE_LINE2":"2 47741  53.0556  31.7354 0001451  58.5043 301.6087 15.06398204 42030","OBJECT_NAME":"STARLINK-2154","MEAN_MOTION":"15.06398204","DECAY_DATE":null,"REV_AT_EPOCH":"4203","OBJECT_ID":"2021-017V","TLE_LINE1":"1 47741U 21017V   21330.90419750  .00001087  00000-0  91838-4 0  9997","SITE":"AFETR","MEAN_ELEMENT_THEORY":"SGP4","RCS_SIZE":"LARGE","LAUNCH_DATE":"2021-03-04","FILE":"3224952","RA_OF_ASC_NODE":"31.7354","ARG_OF_PERICENTER":"58.5043","REF_FRAME":"TEME","ELEMENT_SET_NO":"999","TIME_SYSTEM":"UTC","APOAPSIS":"548.224","PERIOD":"95.592","PERIAPSIS":"546.214","INCLINATION":"53.0556","NORAD_CAT_ID":"47741","SEMIMAJOR_AXIS":"6925.354","ECCENTRICITY":"0.00014510","EPHEMERIS_TYPE":"0","CENTER_NAME":"EARTH","OBJECT_TYPE":"PAYLOAD","MEAN_MOTION_DOT":"0.00001087"},{"ARG_OF_PERICENTER":"65.7618","REF_FRAME":"TEME","ELEMENT_SET_NO":"999","APOAPSIS":"548.172","TIME_SYSTEM":"UTC","INCLINATION":"53.0567","NORAD_CAT_ID":"47742","PERIOD":"95.592","PERIAPSIS":"546.265","ECCENTRICITY":"0.00013770","EPHEMERIS_TYPE":"0","SEMIMAJOR_AXIS":"6925.353","OBJECT_TYPE":"PAYLOAD","MEAN_MOTION_DOT":"0.00000874","CENTER_NAME":"EARTH","MEAN_ANOMALY":"294.3515","GP_ID":"190559193","CLASSIFICATION_TYPE":"U","EPOCH":"2021-11-26T20:23:44.696832","COUNTRY_CODE":"US","BSTAR":"0.00007756000000","MEAN_MOTION_DDOT":"0.0000000000000","MEAN_MOTION":"15.06398458","DECAY_DATE":null,"OBJECT_ID":"2021-017W","REV_AT_EPOCH":"4221","TLE_LINE2":"2 47742  53.0567  21.9802 0001377  65.7618 294.3515 15.06398458 42212","OBJECT_NAME":"STARLINK-2156","MEAN_ELEMENT_THEORY":"SGP4","RCS_SIZE":"LARGE","FILE":"3224952","LAUNCH_DATE":"2021-03-04","RA_OF_ASC_NODE":"21.9802","TLE_LINE1":"1 47742U 21017W   21330.84982288  .00000874  00000-0  77560-4 0  9991","SITE":"AFETR"},{"OBJECT_TYPE":"PAYLOAD","MEAN_MOTION_DOT":"0.00001724","CENTER_NAME":"EARTH","ECCENTRICITY":"0.00008170","EPHEMERIS_TYPE":"0","SEMIMAJOR_AXIS":"6925.339","INCLINATION":"53.0563","NORAD_CAT_ID":"47743","PERIAPSIS":"546.639","PERIOD":"95.592","ARG_OF_PERICENTER":"50.9380","REF_FRAME":"TEME","ELEMENT_SET_NO":"999","APOAPSIS":"547.770","TIME_SYSTEM":"UTC","MEAN_ELEMENT_THEORY":"SGP4","RCS_SIZE":"LARGE","FILE":"3224952","LAUNCH_DATE":"2021-03-04","RA_OF_ASC_NODE":"21.8438","SITE":"AFETR","TLE_LINE1":"1 47743U 21017X   21330.87562475  .00001724  00000-0  13459-3 0  9998","MEAN_MOTION":"15.06402982","DECAY_DATE":null,"REV_AT_EPOCH":"4219","OBJECT_ID":"2021-017X","TLE_LINE2":"2 47743  53.0563  21.8438 0000817  50.9380 309.1681 15.06402982 42197","OBJECT_NAME":"STARLINK-2157","CLASSIFICATION_TYPE":"U","EPOCH":"2021-11-26T21:00:53.978400","COUNTRY_CODE":"US","BSTAR":"0.00013459000000","MEAN_MOTION_DDOT":"0.0000000000000","GP_ID":"190559443","MEAN_ANOMALY":"309.1681"}];
